[{"OBJECT_NAME":"STARLINK-4464","OBJECT_ID":"2022-105X","EPOCH":"2026-03-09T14:51:26.225856","MEAN_MOTION":15.01264858,"ECCENTRICITY":0.0001935,"INCLINATION":97.6047,"RA_OF_ASC_NODE":310.1336,"ARG_OF_PERICENTER":87.5049,"MEAN_ANOMALY":272.6397,"EPHEMERIS_TYPE":0,"CLASSIFICATION_TYPE":"U","NORAD_CAT_ID":53669,"ELEMENT_SET_NO":999,"REV_AT_EPOCH":19322,"BSTAR":8.3915e-5,"MEAN_MOTION_DOT":1.02e-5,"MEAN_MOTION_DDOT":0},{"OBJECT_NAME":"CZ-2C DEB","OBJECT_ID":"2013-035D","EPOCH":"2026-03-09T23:34:49.287360","MEAN_MOTION":14.88810695,"ECCENTRICITY":0.00555667,"INCLINATION":97.8149,"RA_OF_ASC_NODE":69.2801,"ARG_OF_PERICENTER":125.3803,"MEAN_ANOMALY":235.2624,"EPHEMERIS_TYPE":0,"CLASSIFICATION_TYPE":"U","NORAD_CAT_ID":39205,"ELEMENT_SET_NO":999,"REV_AT_EPOCH":67351,"BSTAR":0.0012724881,"MEAN_MOTION_DOT":0.0001222,"MEAN_MOTION_DDOT":0}]
